ONEWEB-0158             
1 48054U 21025N   23059.45849836  .00000310  00000+0  81517-3 0  9995
2 48054  87.9083 199.6709 0001282  92.9487 267.1789 13.13469747 95482
ONEWEB-0158             
1 48054U 21025N   23059.91556480  .00000262  00000+0  68188-3 0  9991
2 48054  87.9084 199.5805 0001285  92.9695 267.1581 13.13469514 95542
ONEWEB-0158             
1 48054U 21025N   23060.90587292  .00000312  00000+0  81844-3 0  9997
2 48054  87.9081 199.3850 0001271  96.2838 263.8436 13.13470020 95678
ONEWEB-0158             
1 48054U 21025N   23061.13440472  .00000373  00000+0  98706-3 0  9993
2 48054  87.9081 199.3399 0001245  97.0010 263.1261 13.13470771 95704
ONEWEB-0158             
1 48054U 21025N   23061.82000304  .00000234  00000+0  60539-3 0  9994
2 48054  87.9081 199.2044 0001243  97.7461 262.3809 13.13470465 95793
ONEWEB-0158             
1 48054U 21025N   23062.35324486  .00000221  00000+0  57075-3 0  9990
2 48054  87.9080 199.0990 0001216  98.6058 261.5208 13.13470841 95862
ONEWEB-0158             
1 48054U 21025N   23062.42942230  .00000230  00000+0  59463-3 0  9994
2 48054  87.9080 199.0839 0001228  98.6814 261.4454 13.13470851 95871
ONEWEB-0158             
1 48054U 21025N   23062.88648691  .00000096  00000+0  22806-3 0  9999
2 48054  87.9081 198.9936 0001223  99.4110 260.7158 13.13471233 95936
